#aV2009 12 24  0  0   .00000000      96 DD+AD WGS84 FIT  NGA
## 1563 345600.00000000   900.00000000 55189  .0000000000000
+   32     1  2  3  4  5  6  7  8  9 10 11 12 13 14 15 16 17
+         18 19 20 21 22 23 24 25 26 27 28 29 30 31 32  0  0
+          0  0  0  0  0  0  0  0  0  0  0  0  0  0  0  0  0
+          0  0  0  0  0  0  0  0  0  0  0  0  0  0  0  0  0
+          0  0  0  0  0  0  0  0  0  0  0  0  0  0  0  0  0
++         0  0  0  0  0  0  0  0  0  0  0  0  0  0  0  0  0
++         0  0  0  0  0  0  0  0  0  0  0  0  0  0  0  0  0
++         0  0  0  0  0  0  0  0  0  0  0  0  0  0  0  0  0
++         0  0  0  0  0  0  0  0  0  0  0  0  0  0  0  0  0
++         0  0  0  0  0  0  0  0  0  0  0  0  0  0  0  0  0
%c cc cc ccc ccc cccc cccc cccc cccc ccccc ccccc ccccc ccccc
%c cc cc ccc ccc cccc cccc cccc cccc ccccc ccccc ccccc ccccc
%f  0.0000000  0.000000000  0.00000000000  0.000000000000000
%f  0.0000000  0.000000000  0.00000000000  0.000000000000000
%i    0    0    0    0      0      0      0      0         0
%i    0    0    0    0      0      0      0      0         0
/*      NGA, ST. LOUIS,MO.                                  
/*   EPHEMERIS COMPUTED FROM  3 DAYS OF DATA                
/* CCCCCCCCCCCCCCCCCCCCCCCCCCCCCCCCCCCCCCCCCCCCCCCCCCCCCCCCC
/* CCCCCCCCCCCCCCCCCCCCCCCCCCCCCCCCCCCCCCCCCCCCCCCCCCCCCCCCC
*  2009 12 24  2 45   .00000000                                                 
P  1  19696.640502 -17676.848625   1278.405173    -73.662522                    
V  1    700.541587   3255.265366  31826.722136      -.028930                    
P  2  13627.153290  20139.568766 -11249.533909    207.214916                    
V  2    951.358731  14286.008355  26446.045498       .045022                    
P  3 -22930.389337 -10736.756439  -8931.383015    492.103629                    
V  3  11201.225142  -1311.676859 -27950.542461       .051937                    
P  4   6201.080099  25617.217254   -189.826830   -421.982650                    
V  4  -3709.008389    930.411574  31509.515287      -.187472                    
P  5  14475.390724   6723.533495 -21257.421690    -24.850701                    
V  5 -19080.054788  19031.301123  -6896.959919       .048656                    
P  6 -20285.170323 -13216.445072 -10864.946202    263.134250                    
V  6  14415.853674    304.067607 -26738.677569      -.008670                    
P  7  -8952.340508  16866.813510 -18403.570815      5.486453                    
V  7  -6831.962989 -22409.714397 -17373.709263      -.006256                    
P  8  -1820.645149  24622.922600  -9069.007799      1.275867                    
V  8  -4011.603651 -11091.340805 -29890.064328       .004305                    
P  9  15294.977649   2648.587188  20901.943113     95.810281                    
V  9   6754.080912  27217.964269  -8094.108288       .021736                    
P 10  10596.471851  11186.070480 -21803.799949    -31.037810                    
V 10 -20316.620526  18237.650840   -178.292347      -.009295                    
P 11 -16960.593896   2538.855227  20082.242953    -35.877201                    
V 11 -10958.276816 -23970.164883  -5780.977892      -.019613                    
P 12  21654.892629  -7901.955901  13133.630602   -172.478115                    
V 12 -10699.260679  12892.356932  25633.917554       .050786                    
P 13 -15250.025876   8396.984058 -20188.276955    306.608812                    
V 13 -23473.625023  -9384.245069  13900.936512       .000911                    
P 14  -2518.050586 -15788.452413  21372.909088     -8.475122                    
V 14  25415.060509   8234.093640   9017.729497       .046056                    
P 15  25641.508276   7130.394609     26.924056   -316.815959                    
V 15   -784.839077   2814.128542 -31561.984893       .015330                    
P 16  -8143.357702 -12725.053340 -21780.784104    -22.762773                    
V 16  20841.866454 -18338.414086   3161.114993      -.041618                    
P 17   3804.523981  16403.279151  20665.763206    114.711804                    
V 17 -25035.406693  -7129.227776  10102.007547       .034540                    
P 18  16662.151466 -19882.291686   4935.218712     36.844664                    
V 18   6949.986122  -1312.338475 -30673.072544       .027195                    
P 19 -25388.502611  -8042.679283   2152.740349     -5.591975                    
V 19  -1544.255443  -3446.666593 -31338.753347      -.020741                    
P 20 -21634.651104  12206.824429   9193.030044     64.816692                    
V 20   6112.384799 -10718.909623  28272.377642      -.007944                    
P 21   6549.890753 -20608.822426 -14700.573528    -29.461477                    
V 21   7350.217744  18350.606797 -22636.796229      -.024049                    
P 22   6893.686843 -20897.149001  14982.452279    183.262495                    
V 22  15754.222451 -10637.191540 -22402.151307      -.011029                    
P 23 -23863.734083   1313.623696 -11931.791276    383.821874                    
V 23 -13780.661250  -6190.804850  26643.142596      -.007444                    
P 24  14118.720901  -7201.473757 -21235.029480    247.666576                    
V 24   5423.299613  26678.281216  -5170.375096       .033564                    
P 25 -11269.280275  11261.184130 -20940.718462     62.017488                    
V 25  -9387.195583 -25668.593611  -8424.630428       .103297                    
P 26   7922.523409 -12222.482239  21705.370207     -4.342142                    
V 26  26996.614302   9890.687691  -3733.221987      -.026691                    
P 27  16388.091087   5671.221219  20835.656892    110.983349                    
V 27   6465.900492  23991.288303 -11949.098281       .032631                    
P 28  -9238.343014  20865.292812  13778.016740    -24.434369                    
V 28 -13979.535441   9629.967470 -25085.201124       .003479                    
P 29  18578.743688  -6868.933331 -17584.328459     84.555941                    
V 29  20871.528856   8642.733278  18620.501950       .030566                    
P 30  19814.628797 -17275.804175   3173.365185    204.298195                    
V 30   -923.162638   5378.635809  31314.278102       .034249                    
P 31  -7418.621722 -25321.947987  -1950.824470    -57.724398                    
V 31   1791.270482  -3254.885947  32046.160753       .011460                    
P 32 -21129.399450   2527.742967  16059.973615    131.774580                    
V 32  14265.528384 -13943.694350  21763.337937      -.078225                    
EOF
